     2              NAVIGATION DATA                         RINEX VERSION / TYPE
CCRINEXN V1.6.0 UX  CDDIS               27-OCT-03 02:46     PGM / RUN BY / DATE 
IGS BROADCAST EPHEMERIS FILE                                COMMENT             
    0.3446D-07  0.7451D-08 -0.1192D-06  0.5960D-07          ION ALPHA           
    0.1413D+06 -0.3277D+05 -0.1311D+06 -0.6554D+05          ION BETA            
    0.931322574615D-08 0.168753899743D-13   147456     1242 DELTA-UTC: A0,A1,T,W
    13                                                      LEAP SECONDS        
                                                            END OF HEADER       
 9 03 10 26 20  0  0.0-0.136364251375D-04-0.181898940355D-11 0.000000000000D+00
    0.171000000000D+03 0.237500000000D+02 0.528486321372D-08-0.160188323357D+01
    0.136345624924D-05 0.150496292627D-01 0.449642539024D-05 0.515360348129D+04
    0.720000000000D+05 0.277534127235D-06 0.148516956211D+01 0.186264514923D-07
    0.949323429943D+00 0.281875000000D+03 0.997710848353D+00-0.834927593729D-08
    0.480377126966D-09 0.100000000000D+01 0.124200000000D+04 0.000000000000D+00
    0.280000000000D+01 0.000000000000D+00-0.558793544769D-08 0.427000000000D+03
    0.709860000000D+05 0.400000000000D+01 0.000000000000D+00 0.000000000000D+00
10 03 10 26 20  0  0.0 0.333483330905D-04 0.568434188608D-12 0.000000000000D+00
    0.320000000000D+02-0.141468750000D+03 0.401195299204D-08 0.186098296600D+01
   -0.728666782379D-05 0.558072864078D-02 0.619515776634D-05 0.515359530830D+04
    0.720000000000D+05-0.167638063431D-07-0.566242260732D+00-0.186264514923D-07
    0.981046289156D+00 0.274656250000D+03 0.233111194634D+00-0.797140309317D-08
   -0.443589914800D-09 0.100000000000D+01 0.124200000000D+04 0.000000000000D+00
    0.485000000000D+01 0.000000000000D+00-0.232830643654D-08 0.288000000000D+03
    0.648180000000D+05 0.400000000000D+01 0.000000000000D+00 0.000000000000D+00
11 03 10 26 20  0  0.0 0.739837996662D-04 0.216004991671D-11 0.000000000000D+00
    0.157000000000D+03 0.834687500000D+02 0.604453749353D-08-0.532285604609D+00
    0.430084764957D-05 0.221648567822D-02 0.119209289551D-06 0.515369940948D+04
    0.720000000000D+05 0.521540641785D-07-0.171645462097D+01-0.931322574615D-07
    0.909812559562D+00 0.352781250000D+03-0.157196778185D+00-0.923502753311D-08
    0.118576367753D-09 0.100000000000D+01 0.124200000000D+04 0.000000000000D+00
    0.100000000000D+01 0.000000000000D+00-0.116415321827D-07 0.413000000000D+03
    0.717600000000D+05 0.000000000000D+00 0.000000000000D+00 0.000000000000D+00
13 03 10 26 20  0  0.0-0.317157246172D-04-0.113686837722D-12 0.000000000000D+00
    0.730000000000D+02-0.374375000000D+02 0.367729603128D-08 0.206896084036D+01
   -0.190921127796D-05 0.196875818074D-02 0.131651759148D-04 0.515378129768D+04
    0.720000000000D+05-0.279396772385D-07 0.475508788427D+00 0.298023223877D-07
    0.980660663950D+00 0.133750000000D+03 0.717438040700D+00-0.753102798326D-08
    0.608239621336D-09 0.000000000000D+00 0.124200000000D+04 0.000000000000D+00
    0.000000000000D+00 0.000000000000D+00-0.111758708954D-07 0.329000000000D+03
    0.649200000000D+05 0.000000000000D+00 0.000000000000D+00 0.000000000000D+00
14 03 10 26 20  0  0.0-0.194008462131D-04 0.341060513165D-12 0.000000000000D+00
    0.119000000000D+03-0.153750000000D+02 0.390301971929D-08 0.119438956186D+00
   -0.929459929466D-06 0.133920100052D-02 0.126902014017D-04 0.515374718857D+04
    0.720000000000D+05-0.800937414169D-07 0.467374979998D+00-0.633299350739D-07
    0.975161484670D+00 0.140187500000D+03-0.132405691357D+01-0.764031824992D-08
    0.553237330270D-09 0.100000000000D+01 0.124200000000D+04 0.000000000000D+00
    0.000000000000D+00 0.000000000000D+00-0.102445483208D-07 0.375000000000D+03
    0.648000000000D+05 0.000000000000D+00 0.000000000000D+00 0.000000000000D+00
15 03 10 26 20  0  0.0 0.177587382495D-03 0.500222085975D-11 0.000000000000D+00
    0.176000000000D+03 0.283750000000D+02 0.477912776020D-08-0.133387672923D+01
    0.152178108692D-05 0.847515184432D-02 0.238418579102D-06 0.515375793839D+04
    0.720000000000D+05-0.987201929092D-07-0.154905277935D+01-0.167638063431D-07
    0.969467503219D+00 0.381843750000D+03 0.215577255699D+01-0.863928839578D-08
    0.785747023002D-10 0.100000000000D+01 0.124200000000D+04 0.000000000000D+00
    0.340000000000D+01 0.000000000000D+00-0.232830643654D-08 0.944000000000D+03
    0.648180000000D+05 0.400000000000D+01 0.000000000000D+00 0.000000000000D+00
16 03 10 26 20  0  0.0 0.710738822818D-05 0.261479726760D-11 0.000000000000D+00
    0.231000000000D+03-0.255937500000D+02 0.472091077341D-08-0.226552750459D+01
   -0.125169754028D-05 0.205331400502D-02 0.984035432339D-05 0.515369434166D+04
    0.720000000000D+05 0.167638063431D-07 0.256090438989D+01 0.856816768646D-07
    0.961266232323D+00 0.189187500000D+03-0.161450700530D+01-0.795533150466D-08
   -0.617525697244D-09 0.100000000000D+01 0.124200000000D+04 0.000000000000D+00
    0.340000000000D+01 0.000000000000D+00-0.931322574615D-08 0.487000000000D+03
    0.648180000000D+05 0.400000000000D+01 0.000000000000D+00 0.000000000000D+00
17 03 10 26 20  0  0.0 0.119549687952D-03-0.341060513165D-10 0.000000000000D+00
    0.131000000000D+03 0.255937500000D+02 0.461019222797D-08-0.996737040841D+00
    0.136718153954D-05 0.159007516922D-01 0.124797224998D-06 0.515305096245D+04
    0.720000000000D+05 0.333413481712D-06-0.150767429362D+01-0.188127160072D-06
    0.971529990958D+00 0.383250000000D+03-0.284673944322D+01-0.850535464281D-08
    0.675028088981D-10 0.100000000000D+01 0.124200000000D+04 0.000000000000D+00
    0.240000000000D+01 0.000000000000D+00-0.139698386192D-08 0.131000000000D+03
    0.648180000000D+05 0.400000000000D+01 0.000000000000D+00 0.000000000000D+00
18 03 10 26 20  0  0.0 0.635720789433D-05-0.136424205266D-11 0.000000000000D+00
    0.100000000000D+02-0.141312500000D+03 0.417338830161D-08-0.283358112123D+01
   -0.729039311409D-05 0.441910244990D-02 0.719539821148D-05 0.515362573433D+04
    0.720000000000D+05-0.894069671631D-07-0.530399018140D+00-0.298023223877D-07
    0.964559133645D+00 0.242156250000D+03-0.299387464975D+01-0.802462007954D-08
   -0.317513237924D-09 0.100000000000D+01 0.124200000000D+04 0.000000000000D+00
    0.340000000000D+01 0.000000000000D+00-0.102445483208D-07 0.266000000000D+03
    0.663960000000D+05 0.400000000000D+01 0.000000000000D+00 0.000000000000D+00
20 03 10 26 20  0  0.0-0.206424389035D-03 0.136424205266D-11 0.000000000000D+00
    0.940000000000D+02-0.156812500000D+03 0.430017911972D-08 0.265857254593D+01
   -0.794790685177D-05 0.200643064454D-02 0.646524131298D-05 0.515378983688D+04
    0.720000000000D+05-0.186264514923D-08-0.582608311495D+00 0.856816768646D-07
    0.964699023724D+00 0.255875000000D+03 0.173780593082D+01-0.813855328913D-08
   -0.431446542909D-09 0.100000000000D+01 0.124200000000D+04 0.000000000000D+00
    0.200000000000D+01 0.000000000000D+00-0.698491930962D-08 0.940000000000D+02
    0.648180000000D+05 0.400000000000D+01 0.000000000000D+00 0.000000000000D+00
21 03 10 26 20  0  0.0 0.597471371293D-04 0.352429196937D-11 0.000000000000D+00
    0.860000000000D+02 0.409062500000D+02 0.491484763998D-08-0.137766026252D+01
    0.206939876080D-05 0.802193593699D-02 0.374391674995D-06 0.515372382545D+04
    0.720000000000D+05-0.260770320892D-07-0.157403606275D+01-0.838190317154D-07
    0.956114866205D+00 0.370718750000D+03 0.292706619761D+01-0.866714700010D-08
    0.143934572594D-09 0.100000000000D+01 0.124200000000D+04 0.000000000000D+00
    0.340000000000D+01 0.000000000000D+00-0.121071934700D-07 0.598000000000D+03
    0.648180000000D+05 0.400000000000D+01 0.000000000000D+00 0.000000000000D+00
23 03 10 26 20  0  0.0 0.395323149860D-04 0.102318153949D-11 0.000000000000D+00
    0.760000000000D+02-0.146218750000D+03 0.384980314294D-08 0.140653937283D+01
   -0.789761543274D-05 0.164594573434D-01 0.788830220699D-05 0.515386514854D+04
    0.720000000000D+05-0.165775418282D-06-0.515328736825D+00-0.372529029846D-06
    0.984714238786D+00 0.243781250000D+03-0.164646795004D+01-0.796033194916D-08
   -0.359300672548D-09 0.100000000000D+01 0.124200000000D+04 0.000000000000D+00
    0.240000000000D+01 0.000000000000D+00-0.279396772385D-08 0.760000000000D+02
    0.703380000000D+05 0.400000000000D+01 0.000000000000D+00 0.000000000000D+00
24 03 10 26 20  0  0.0 0.703576952219D-04 0.284217094304D-11 0.000000000000D+00
    0.104000000000D+03 0.548437500000D+02 0.468376652625D-08-0.158055458872D+01
    0.298582017422D-05 0.970863574184D-02 0.739470124245D-06 0.515378000641D+04
    0.720000000000D+05-0.614672899246D-07-0.157550996734D+01 0.294297933578D-06
    0.972784725554D+00 0.374312500000D+03-0.146002297902D+01-0.853785563596D-08
    0.510735559900D-10 0.000000000000D+00 0.124200000000D+04 0.000000000000D+00
    0.000000000000D+00 0.000000000000D+00-0.139698386192D-08 0.104000000000D+03
    0.648000000000D+05 0.000000000000D+00 0.000000000000D+00 0.000000000000D+00
25 03 10 26 20  0  0.0 0.541815534234D-04 0.682121026330D-12 0.000000000000D+00
    0.147000000000D+03 0.266562500000D+02 0.562237723045D-08-0.884795234062D+00
    0.157393515110D-05 0.106415227056D-01 0.521540641785D-05 0.515378123665D+04
    0.720000000000D+05-0.137835741043D-06 0.143689768643D+01 0.135973095894D-06
    0.942348306761D+00 0.275000000000D+03-0.166951955691D+01-0.872964900367D-08
    0.448232950756D-09 0.100000000000D+01 0.124200000000D+04 0.000000000000D+00
    0.340000000000D+01 0.000000000000D+00-0.745058059692D-08 0.403000000000D+03
    0.648180000000D+05 0.400000000000D+01 0.000000000000D+00 0.000000000000D+00
